[{"OBJECT_NAME":"STARLINK-30080","OBJECT_ID":"2023-067T","EPOCH":"2026-03-08T23:23:04.660800","MEAN_MOTION":15.01721703,"ECCENTRICITY":8.544e-5,"INCLINATION":42.9996,"RA_OF_ASC_NODE":265.3146,"ARG_OF_PERICENTER":262.4975,"MEAN_ANOMALY":97.577,"EPHEMERIS_TYPE":0,"CLASSIFICATION_TYPE":"U","NORAD_CAT_ID":56705,"ELEMENT_SET_NO":999,"REV_AT_EPOCH":15570,"BSTAR":2.3786545e-5,"MEAN_MOTION_DOT":1.13e-6,"MEAN_MOTION_DDOT":0},{"OBJECT_NAME":"OBJECT C","OBJECT_ID":"2025-292C","EPOCH":"2026-03-09T21:40:07.439232","MEAN_MOTION":15.0561637,"ECCENTRICITY":0.00142936,"INCLINATION":97.6364,"RA_OF_ASC_NODE":145.6037,"ARG_OF_PERICENTER":339.8589,"MEAN_ANOMALY":20.2072,"EPHEMERIS_TYPE":0,"CLASSIFICATION_TYPE":"U","NORAD_CAT_ID":66995,"ELEMENT_SET_NO":999,"REV_AT_EPOCH":1350,"BSTAR":0.00047642755,"MEAN_MOTION_DOT":6.828e-5,"MEAN_MOTION_DDOT":0}]
